CCSDS_OMM_VERS = 2.0
CREATION_DATE  = 
ORIGINATOR     = 

OBJECT_NAME    = STARLINK-35768
OBJECT_ID      = 2025-280M
CENTER_NAME    = EARTH
REF_FRAME      = TEME
TIME_SYSTEM    = UTC
MEAN_ELEMENT_THEORY = SGP/SGP4

EPOCH          = 2025-12-25T21:05:00.102624
MEAN_MOTION    = 15.52564340
ECCENTRICITY   = .00034501
INCLINATION    = 70.0006
RA_OF_ASC_NODE = 162.4034
ARG_OF_PERICENTER = 271.1394
MEAN_ANOMALY   = 88.9398

EPHEMERIS_TYPE = 0
CLASSIFICATION_TYPE = U
NORAD_CAT_ID   = 66832
ELEMENT_SET_NO = 999
REV_AT_EPOCH   = 497
BSTAR          = .17179112E-2
MEAN_MOTION_DOT = .107131E-2
MEAN_MOTION_DDOT = 0

CCSDS_OMM_VERS = 2.0
CREATION_DATE  = 
ORIGINATOR     = 

OBJECT_NAME    = STARLINK-35858
OBJECT_ID      = 2025-280N
CENTER_NAME    = EARTH
REF_FRAME      = TEME
TIME_SYSTEM    = UTC
MEAN_ELEMENT_THEORY = SGP/SGP4

EPOCH          = 2025-12-25T19:30:53.978400
MEAN_MOTION    = 15.57235803
ECCENTRICITY   = .00088779
INCLINATION    = 70.0002
RA_OF_ASC_NODE = 162.5768
ARG_OF_PERICENTER = 250.0111
MEAN_ANOMALY   = 110.0123

EPHEMERIS_TYPE = 0
CLASSIFICATION_TYPE = U
NORAD_CAT_ID   = 66833
ELEMENT_SET_NO = 999
REV_AT_EPOCH   = 496
BSTAR          = .64491045E-1
MEAN_MOTION_DOT = .5535892E-1
MEAN_MOTION_DDOT = 0

CCSDS_OMM_VERS = 2.0
CREATION_DATE  = 
ORIGINATOR     = 

OBJECT_NAME    = STARLINK-35840
OBJECT_ID      = 2025-280P
CENTER_NAME    = EARTH
REF_FRAME      = TEME
TIME_SYSTEM    = UTC
MEAN_ELEMENT_THEORY = SGP/SGP4

EPOCH          = 2025-12-25T21:04:00.940224
MEAN_MOTION    = 15.52553813
ECCENTRICITY   = .00032359
INCLINATION    = 70.0006
RA_OF_ASC_NODE = 162.4007
ARG_OF_PERICENTER = 276.1183
MEAN_ANOMALY   = 83.9636

EPHEMERIS_TYPE = 0
CLASSIFICATION_TYPE = U
NORAD_CAT_ID   = 66834
ELEMENT_SET_NO = 999
REV_AT_EPOCH   = 497
BSTAR          = .15369963E-2
MEAN_MOTION_DOT = .95654E-3
MEAN_MOTION_DDOT = 0

CCSDS_OMM_VERS = 2.0
CREATION_DATE  = 
ORIGINATOR     = 

OBJECT_NAME    = STARLINK-35890
OBJECT_ID      = 2025-280Q
CENTER_NAME    = EARTH
REF_FRAME      = TEME
TIME_SYSTEM    = UTC
MEAN_ELEMENT_THEORY = SGP/SGP4

EPOCH          = 2025-12-25T21:03:31.364640
MEAN_MOTION    = 15.52555524
ECCENTRICITY   = .00031283
INCLINATION    = 70.0006
RA_OF_ASC_NODE = 162.3991
ARG_OF_PERICENTER = 278.5717
MEAN_ANOMALY   = 81.5115

EPHEMERIS_TYPE = 0
CLASSIFICATION_TYPE = U
NORAD_CAT_ID   = 66835
ELEMENT_SET_NO = 999
REV_AT_EPOCH   = 497
BSTAR          = .1514416E-2
MEAN_MOTION_DOT = .94234E-3
MEAN_MOTION_DDOT = 0

CCSDS_OMM_VERS = 2.0
CREATION_DATE  = 
ORIGINATOR     = 

OBJECT_NAME    = STARLINK-35838
OBJECT_ID      = 2025-280R
CENTER_NAME    = EARTH
REF_FRAME      = TEME
TIME_SYSTEM    = UTC
MEAN_ELEMENT_THEORY = SGP/SGP4

EPOCH          = 2025-12-25T21:03:01.764000
MEAN_MOTION    = 15.52545248
ECCENTRICITY   = .00031182
INCLINATION    = 70.0008
RA_OF_ASC_NODE = 162.3975
ARG_OF_PERICENTER = 277.1136
MEAN_ANOMALY   = 82.9697

EPHEMERIS_TYPE = 0
CLASSIFICATION_TYPE = U
NORAD_CAT_ID   = 66836
ELEMENT_SET_NO = 999
REV_AT_EPOCH   = 497
BSTAR          = .12287886E-2
MEAN_MOTION_DOT = .76227E-3
MEAN_MOTION_DDOT = 0

CCSDS_OMM_VERS = 2.0
CREATION_DATE  = 
ORIGINATOR     = 

OBJECT_NAME    = STARLINK-35729
OBJECT_ID      = 2025-280S
CENTER_NAME    = EARTH
REF_FRAME      = TEME
TIME_SYSTEM    = UTC
MEAN_ELEMENT_THEORY = SGP/SGP4

EPOCH          = 2025-12-25T21:02:31.871328
MEAN_MOTION    = 15.52568509
ECCENTRICITY   = .00035526
INCLINATION    = 70.0009
RA_OF_ASC_NODE = 162.3962
ARG_OF_PERICENTER = 272.3219
MEAN_ANOMALY   = 87.7562

EPHEMERIS_TYPE = 0
CLASSIFICATION_TYPE = U
NORAD_CAT_ID   = 66837
ELEMENT_SET_NO = 999
REV_AT_EPOCH   = 497
BSTAR          = .16348551E-2
MEAN_MOTION_DOT = .101893E-2
MEAN_MOTION_DDOT = 0

CCSDS_OMM_VERS = 2.0
CREATION_DATE  = 
ORIGINATOR     = 

OBJECT_NAME    = STARLINK-35886
OBJECT_ID      = 2025-280T
CENTER_NAME    = EARTH
REF_FRAME      = TEME
TIME_SYSTEM    = UTC
MEAN_ELEMENT_THEORY = SGP/SGP4

EPOCH          = 2025-12-25T21:01:32.623392
MEAN_MOTION    = 15.52533977
ECCENTRICITY   = .00033682
INCLINATION    = 70.0009
RA_OF_ASC_NODE = 162.3932
ARG_OF_PERICENTER = 273.7970
MEAN_ANOMALY   = 86.2832

EPHEMERIS_TYPE = 0
CLASSIFICATION_TYPE = U
NORAD_CAT_ID   = 66838
ELEMENT_SET_NO = 999
REV_AT_EPOCH   = 497
BSTAR          = .1119108E-2
MEAN_MOTION_DOT = .69322E-3
MEAN_MOTION_DDOT = 0

CCSDS_OMM_VERS = 2.0
CREATION_DATE  = 
ORIGINATOR     = 

OBJECT_NAME    = STARLINK-35717
OBJECT_ID      = 2025-280U
CENTER_NAME    = EARTH
REF_FRAME      = TEME
TIME_SYSTEM    = UTC
MEAN_ELEMENT_THEORY = SGP/SGP4

EPOCH          = 2025-12-25T21:02:02.485824
MEAN_MOTION    = 15.52545748
ECCENTRICITY   = .0003218
INCLINATION    = 70.0008
RA_OF_ASC_NODE = 162.3944
ARG_OF_PERICENTER = 276.8843
MEAN_ANOMALY   = 83.1978

EPHEMERIS_TYPE = 0
CLASSIFICATION_TYPE = U
NORAD_CAT_ID   = 66839
ELEMENT_SET_NO = 999
REV_AT_EPOCH   = 497
BSTAR          = .13218296E-2
MEAN_MOTION_DOT = .82075E-3
MEAN_MOTION_DDOT = 0

CCSDS_OMM_VERS = 2.0
CREATION_DATE  = 
ORIGINATOR     = 

OBJECT_NAME    = STARLINK-35837
OBJECT_ID      = 2025-280V
CENTER_NAME    = EARTH
REF_FRAME      = TEME
TIME_SYSTEM    = UTC
MEAN_ELEMENT_THEORY = SGP/SGP4

EPOCH          = 2025-12-25T21:01:03.132480
MEAN_MOTION    = 15.52548635
ECCENTRICITY   = .00033123
INCLINATION    = 70.0007
RA_OF_ASC_NODE = 162.3923
ARG_OF_PERICENTER = 271.8453
MEAN_ANOMALY   = 88.2354

EPHEMERIS_TYPE = 0
CLASSIFICATION_TYPE = U
NORAD_CAT_ID   = 66840
ELEMENT_SET_NO = 999
REV_AT_EPOCH   = 497
BSTAR          = .13384525E-2
MEAN_MOTION_DOT = .8313E-3
MEAN_MOTION_DDOT = 0

CCSDS_OMM_VERS = 2.0
CREATION_DATE  = 
ORIGINATOR     = 

OBJECT_NAME    = STARLINK-35715
OBJECT_ID      = 2025-280W
CENTER_NAME    = EARTH
REF_FRAME      = TEME
TIME_SYSTEM    = UTC
MEAN_ELEMENT_THEORY = SGP/SGP4

EPOCH          = 2025-12-25T17:54:59.759136
MEAN_MOTION    = 15.52550254
ECCENTRICITY   = .00033851
INCLINATION    = 70.0008
RA_OF_ASC_NODE = 162.7437
ARG_OF_PERICENTER = 274.3901
MEAN_ANOMALY   = 85.6899

EPHEMERIS_TYPE = 0
CLASSIFICATION_TYPE = U
NORAD_CAT_ID   = 66841
ELEMENT_SET_NO = 999
REV_AT_EPOCH   = 495
BSTAR          = .12511653E-2
MEAN_MOTION_DOT = .77649E-3
MEAN_MOTION_DDOT = 0

CCSDS_OMM_VERS = 2.0
CREATION_DATE  = 
ORIGINATOR     = 

OBJECT_NAME    = STARLINK-35769
OBJECT_ID      = 2025-280X
CENTER_NAME    = EARTH
REF_FRAME      = TEME
TIME_SYSTEM    = UTC
MEAN_ELEMENT_THEORY = SGP/SGP4

EPOCH          = 2025-12-25T16:21:43.530048
MEAN_MOTION    = 15.52546492
ECCENTRICITY   = .00031597
INCLINATION    = 70.0007
RA_OF_ASC_NODE = 162.9191
ARG_OF_PERICENTER = 274.6719
MEAN_ANOMALY   = 85.4107

EPHEMERIS_TYPE = 0
CLASSIFICATION_TYPE = U
NORAD_CAT_ID   = 66842
ELEMENT_SET_NO = 999
REV_AT_EPOCH   = 494
BSTAR          = .15378743E-2
MEAN_MOTION_DOT = .95683E-3
MEAN_MOTION_DDOT = 0

CCSDS_OMM_VERS = 2.0
CREATION_DATE  = 
ORIGINATOR     = 

OBJECT_NAME    = STARLINK-35997
OBJECT_ID      = 2025-280Y
CENTER_NAME    = EARTH
REF_FRAME      = TEME
TIME_SYSTEM    = UTC
MEAN_ELEMENT_THEORY = SGP/SGP4

EPOCH          = 2025-12-25T20:59:04.378272
MEAN_MOTION    = 15.52549774
ECCENTRICITY   = .00037016
INCLINATION    = 70.0010
RA_OF_ASC_NODE = 162.3860
ARG_OF_PERICENTER = 270.5237
MEAN_ANOMALY   = 89.5526

EPHEMERIS_TYPE = 0
CLASSIFICATION_TYPE = U
NORAD_CAT_ID   = 66843
ELEMENT_SET_NO = 999
REV_AT_EPOCH   = 497
BSTAR          = .14904467E-2
MEAN_MOTION_DOT = .92709E-3
MEAN_MOTION_DDOT = 0

