STARLINK-35768          
1 66832U 25280M   25359.87847341  .00107131  00000+0  17179-2 0  9997
2 66832  70.0006 162.4034 0003450 271.1394  88.9398 15.52564340  4979
STARLINK-35858          
1 66833U 25280N   25359.81312475  .05535892  00000+0  64491-1 0  9999
2 66833  70.0002 162.5768 0008877 250.0111 110.0123 15.57235803  4968
STARLINK-35840          
1 66834U 25280P   25359.87778866  .00095654  00000+0  15370-2 0  9991
2 66834  70.0006 162.4007 0003235 276.1183  83.9636 15.52553813  4976
STARLINK-35890          
1 66835U 25280Q   25359.87744635  .00094234  00000+0  15144-2 0  9991
2 66835  70.0006 162.3991 0003128 278.5717  81.5115 15.52555524  4975
STARLINK-35838          
1 66836U 25280R   25359.87710375  .00076227  00000+0  12288-2 0  9994
2 66836  70.0008 162.3975 0003118 277.1136  82.9697 15.52545248  4971
STARLINK-35729          
1 66837U 25280S   25359.87675777  .00101893  00000+0  16349-2 0  9991
2 66837  70.0009 162.3962 0003552 272.3219  87.7562 15.52568509  4979
STARLINK-35886          
1 66838U 25280T   25359.87607203  .00069322  00000+0  11191-2 0  9991
2 66838  70.0009 162.3932 0003368 273.7970  86.2832 15.52533977  4976
STARLINK-35717          
1 66839U 25280U   25359.87641766  .00082075  00000+0  13218-2 0  9996
2 66839  70.0008 162.3944 0003218 276.8843  83.1978 15.52545748  4972
STARLINK-35837          
1 66840U 25280V   25359.87573070  .00083130  00000+0  13385-2 0  9998
2 66840  70.0007 162.3923 0003312 271.8453  88.2354 15.52548635  4979
STARLINK-35715          
1 66841U 25280W   25359.74652499  .00077649  00000+0  12512-2 0  9997
2 66841  70.0008 162.7437 0003385 274.3901  85.6899 15.52550254  4954
STARLINK-35769          
1 66842U 25280X   25359.68175382  .00095683  00000+0  15379-2 0  9994
2 66842  70.0007 162.9191 0003159 274.6719  85.4107 15.52546492  4940
STARLINK-35997          
1 66843U 25280Y   25359.87435623  .00092709  00000+0  14904-2 0  9992
2 66843  70.0010 162.3860 0003701 270.5237  89.5526 15.52549774  4974
